[{"OBJECT_NAME":"STARLINK-32443","OBJECT_ID":"2024-193M","EPOCH":"2026-03-09T06:24:55.379232","MEAN_MOTION":15.30193882,"ECCENTRICITY":0.00012303,"INCLINATION":53.1593,"RA_OF_ASC_NODE":92.8475,"ARG_OF_PERICENTER":85.3759,"MEAN_ANOMALY":274.7383,"EPHEMERIS_TYPE":0,"CLASSIFICATION_TYPE":"U","NORAD_CAT_ID":61672,"ELEMENT_SET_NO":999,"REV_AT_EPOCH":7646,"BSTAR":8.02962e-6,"MEAN_MOTION_DOT":-1.21e-6,"MEAN_MOTION_DDOT":0},{"OBJECT_NAME":"TEVEL2-2","OBJECT_ID":"2025-052K","EPOCH":"2026-03-09T15:33:48.895776","MEAN_MOTION":15.30343745,"ECCENTRICITY":0.0004693,"INCLINATION":97.3987,"RA_OF_ASC_NODE":324.77,"ARG_OF_PERICENTER":105.793,"MEAN_ANOMALY":254.3828,"EPHEMERIS_TYPE":0,"CLASSIFICATION_TYPE":"U","NORAD_CAT_ID":63219,"ELEMENT_SET_NO":999,"REV_AT_EPOCH":5485,"BSTAR":0.00069428,"MEAN_MOTION_DOT":0.00020339,"MEAN_MOTION_DDOT":0}]
